satname,norad_id,inclination_deg,eccentricity,mean_motion_rev_per_day,perigee_km,apogee_km,l1,l2
STARLINK-1168,45072,53.0522,0.0001224,15.0639863,546.368093616712,548.0634199715741,1 45072U 20006AE  25305.21311847  .00004924  00000+0  34922-3 0  9999,2 45072  53.0522 123.3707 0001224  73.6431 286.4693 15.06398630317373
STARLINK-1172,45074,53.0535,0.0001468,15.06403425,546.1844211991283,548.2177004537862,1 45074U 20006AG  25304.75973182  .00001067  00000+0  90490-4 0  9993,2 45074  53.0535 125.4103 0001468  92.7696 267.3461 15.06403425317300
STARLINK-1153,45080,53.0508,0.0001438,15.06409658,546.186096851311,548.177818583551,1 45080U 20006AN  25305.20204038  .00000990  00000+0  85298-4 0  9992,2 45080  53.0508 123.4204 0001438  81.8814 278.2338 15.06409658317370
STARLINK-1151,45081,53.0515,0.000124,15.06403889,546.3408969958346,548.0583804822418,1 45081U 20006AP  25305.51905769  .00006004  00000+0  42158-3 0  9995,2 45081  53.0515 122.0716 0001240  93.6801 266.4330 15.06403889317427
STARLINK-1190,45083,53.0389,0.0003455,15.91011667,297.1435608405891,301.7577739187491,1 45083U 20006AR  25305.66668981  .00284521  41154-4  89088-3 0  9990,2 45083  53.0389  71.3630 0003455 280.6524 141.7055 15.91011667  6077
STARLINK-1185,45087,53.0559,0.0001518,15.06396301,546.1716252316828,548.2741644957632,1 45087U 20006AV  25305.16334097  .00000408  00000+0  46305-4 0  9993,2 45087  53.0559 103.5937 0001518  88.6790 271.4373 15.06396301317657
STARLINK-1183,45088,53.0523,0.0001173,15.06401404,546.3949120027346,548.019597764931,1 45088U 20006AW  25305.18545570  .00001027  00000+0  87797-4 0  9994,2 45088  53.0523 103.4958 0001173  85.8520 274.2603 15.06401404317656
STARLINK-1176,45090,53.0373,0.0007832,16.22542166,207.49674390570271,217.82056621979336,1 45090U 20006AY  25304.72916759  .02324984  11905-4  95091-3 0  9995,2 45090  53.0373  33.5580 0007832 356.1138   3.9839 16.22542166318595
STARLINK-1142,45093,53.0344,0.0004719,15.61826525,379.19078934304525,385.5713663048955,1 45093U 20006BB  25305.66668981  .00210212  00000+0  23242-2 0  9996,2 45093  53.0344  34.1467 0004719 351.8756 320.6115 15.61826525  5939
STARLINK-1152,45096,53.0499,0.0006857,15.2393612,489.2697071537168,498.69413103936677,1 45096U 20006BE  25304.78886066  .00036216  00000+0  14844-2 0  9995,2 45096  53.0499  87.4544 0006857 167.3208 192.7962 15.23936120317842
STARLINK-1184,45098,53.055,0.0001457,15.06402686,546.1943036619032,548.2123478328267,1 45098U 20006BG  25304.80211386  .00000791  00000+0  71965-4 0  9995,2 45098  53.0550 105.2149 0001457  92.2102 267.9054 15.06402686317597
STARLINK-1193,45100,53.0528,0.0002075,15.06383371,545.8255034958938,548.6995442983107,1 45100U 20006BJ  25304.86479697  .00006005  00000+0  42191-3 0  9998,2 45100  53.0528 104.9346 0002075  90.6430 269.4797 15.06383371317606
STARLINK-1143,45179,53.0526,0.0008828,15.4084367,437.59582380330085,449.6403145534423,1 45179U 20012B   25305.49036392  .00062881  00000+0  15052-2 0  9991,2 45179  53.0526 225.5793 0008828  58.4293 301.7572 15.40843670316035
STARLINK-1202,45183,53.0547,0.0001573,15.06377613,546.1908035975857,548.3695398398086,1 45183U 20012F   25305.59092585 -.00002771  00000+0 -16731-3 0  9993,2 45183  53.0547 261.6795 0001573  91.9365 268.1804 15.06377613315537
STARLINK-1216,45185,53.0558,0.0001629,15.06379689,546.145659506632,548.4019583481813,1 45185U 20012H   25305.18546225 -.00003247  00000+0 -19929-3 0  9996,2 45185  53.0558 263.4951 0001629  89.1717 270.9459 15.06379689315416
STARLINK-1225,45187,53.0537,0.0001294,15.06383983,546.3645017156987,548.1567946270461,1 45187U 20012K   25305.60198165 -.00000267  00000+0  95010-6 0  9997,2 45187  53.0537 261.6268 0001294  90.2806 269.8331 15.06383983315526
STARLINK-1230,45189,53.0537,0.0001352,15.06379231,546.3388969321913,548.211528394494,1 45189U 20012M   25305.60566585 -.00003004  00000+0 -18300-3 0  9991,2 45189  53.0537 261.6126 0001352  92.8579 267.2565 15.06379231312755
STARLINK-1234,45190,53.0538,0.0002792,15.36061129,455.8618792727757,459.6790500010302,1 45190U 20012N   25304.99912975  .00062061  00000+0  17381-2 0  9995,2 45190  53.0538 221.2327 0002792 103.2684 256.8630 15.36061129315944
STARLINK-1269,45197,53.0536,0.000146,15.06387055,546.2401261009854,548.2623394649581,1 45197U 20012V   25305.61672917  .00001596  00000+0  12605-3 0  9992,2 45197  53.0536 261.5624 0001460 100.3189 259.7965 15.06387055315506
STARLINK-1154,45198,53.0541,0.0001492,15.06372586,546.2623046333338,548.3288537149592,1 45198U 20012W   25305.54116710 -.00000755  00000+0 -31833-4 0  9992,2 45198  53.0541 241.9003 0001492  90.7805 269.3355 15.06372586315747
STARLINK-1199,45201,53.0544,0.0001472,15.06386475,546.2335930159315,548.2724278350015,1 45201U 20012Z   25305.55222109  .00001799  00000+0  13968-3 0  9993,2 45201  53.0544 241.8515 0001472  89.3016 270.8142 15.06386475315808
STARLINK-1209,45206,53.0536,0.0001788,15.30195998,474.00163720945784,476.4524001825448,1 45206U 20012AE  25305.58244375  .00021950  00000+0  75109-3 0  9996,2 45206  53.0536 219.1384 0001788 103.8766 256.2433 15.30195998315176
STARLINK-1210,45207,53.0241,0.0012915,15.56468433,389.1361965998922,406.6386677081455,1 45207U 20012AF  25304.95317712  .00105849  00000+0  14514-2 0  9995,2 45207  53.0241 184.2125 0012915  67.7126 292.5253 15.56468433316569
STARLINK-1231,45212,53.0515,0.0006748,15.12425475,524.1448780060591,533.4664878509393,1 45212U 20012AL  25305.56350210  .00034893  00000+0  19918-2 0  9992,2 45212  53.0515 240.0927 0006748  50.7111 309.4478 15.12425475315784
STARLINK-1271,45217,53.0542,0.0001757,15.06404912,545.979722310095,548.4132845031918,1 45217U 20012AR  25305.53746358  .00002344  00000+0  17618-3 0  9998,2 45217  53.0542 241.9177 0001757  89.6326 270.4865 15.06404912315806
STARLINK-1191,45222,53.0539,0.0001453,15.06364939,546.3127481785396,548.3252856970612,1 45222U 20012AW  25305.48035230  .00010022  00000+0  69139-3 0  9995,2 45222  53.0539 222.1727 0001453  89.2857 270.8298 15.06364939316076
STARLINK-1212,45223,53.054,0.000172,15.06379992,546.0817097559302,548.4640507547383,1 45223U 20012AX  25305.49886398  .00002557  00000+0  19061-3 0  9999,2 45223  53.0540 222.7461 0001720  82.8917 277.2268 15.06379992316076
STARLINK-1215,45225,53.0543,0.0001235,15.06384838,546.4027413883987,548.1133139602343,1 45225U 20012AZ  25305.05642784 -.00021242  00000+0 -14120-2 0  9996,2 45225  53.0543 224.0754 0001235  95.5069 264.6061 15.06384838315964
STARLINK-1221,45227,53.0658,0.000225,15.36757788,454.16674449730726,457.24197310876843,1 45227U 20012BB  25305.55539801  .00013039  00000+0  36780-3 0  9998,2 45227  53.0658 154.4403 0002250 359.4064   0.6935 15.36757788316976
STARLINK-1222,45228,53.054,0.0001364,15.06374033,546.346515797718,548.2357725954553,1 45228U 20012BC  25305.08963205 -.00007184  00000+0 -46420-3 0  9994,2 45228  53.0540 223.9261 0001364  94.1079 266.0066 15.06374033315905
STARLINK-1226,45229,53.0533,0.0001284,15.06394786,546.3383213367188,548.1167549501133,1 45229U 20012BD  25305.05275088 -.00016890  00000+0 -11178-2 0  9992,2 45229  53.0533 224.0909 0001284  94.7514 265.3622 15.06394786315907
STARLINK-1227,45230,53.0541,0.0001487,15.06381608,546.2381196301712,548.2977350555639,1 45230U 20012BE  25305.51352949  .00015492  00000+0  10572-2 0  9999,2 45230  53.0541 222.0230 0001487 108.5702 251.5449 15.06381608316095
STARLINK-1246,45235,53.0543,0.000172,15.06391239,546.0472447012044,548.4295738419933,1 45235U 20012BK  25305.59460916 -.00001180  00000+0 -60338-4 0  9994,2 45235  53.0543 261.6580 0001720  92.7416 267.3770 15.06391239315558
STARLINK-1270,45237,53.0541,0.0001445,15.06377141,546.2808953765734,548.2823413572814,1 45237U 20012BM  25305.46560751  .00011930  00000+0  81891-3 0  9998,2 45237  53.0541 222.2381 0001445 106.2954 253.8194 15.06377141316076
STARLINK-1279,45360,53.0526,0.000217,15.3408031,462.1689227058696,465.13825982247727,1 45360U 20019A   25305.62452863  .00058962  00000+0  17601-2 0  9997,2 45360  53.0526 348.7333 0002170  23.6670 336.4430 15.34080310310873
STARLINK-1301,45361,53.0522,0.0001981,15.36527977,455.0318257572526,457.7396636687081,1 45361U 20019B   25305.58591913  .00055564  00000+0  15355-2 0  9992,2 45361  53.0522 358.6237 0001981  27.2227 332.8878 15.36527977310749
STARLINK-1306,45362,53.0467,0.0006728,15.6951007,355.76531458583304,364.83255397900393,1 45362U 20019C   25305.66668981  .00139869  00000+0  11482-2 0  9990,2 45362  53.0467 348.1346 0006728 308.9154  28.7054 15.69510070  6016
STARLINK-1262,45366,53.0564,0.0001538,15.06383497,546.1970113307916,548.3272641055537,1 45366U 20019G   25305.50981750 -.00000565  00000+0 -19054-4 0  9996,2 45366  53.0564  22.0367 0001538  84.7506 275.3658 15.06383497310417
STARLINK-1273,45367,53.054,0.0001171,15.06383461,546.451283803056,548.0732123069511,1 45367U 20019H   25305.59828365 -.00004227  00000+0 -26515-3 0  9996,2 45367  53.0540  21.6411 0001171  90.2798 269.8325 15.06383461310426
STARLINK-1276,45368,53.0555,0.0001092,15.06389452,546.4876346349502,548.0001378205034,1 45368U 20019J   25305.63514425  .00004681  00000+0  33305-3 0  9998,2 45368  53.0555  21.4778 0001092  87.7347 272.3767 15.06389452310436
STARLINK-1277,45369,53.0567,0.0001616,15.06366407,546.1953645931126,548.4336705235864,1 45369U 20019K   25305.62785786  .00001345  00000+0  10924-3 0  9994,2 45369  53.0567  22.1353 0001616  94.8667 265.2506 15.06366407310429
STARLINK-1281,45370,53.0571,0.0001379,15.06383047,546.308504197601,548.2185296601701,1 45370U 20019L   25305.62409809 -.00001685  00000+0 -94298-4 0  9991,2 45370  53.0571  21.5274 0001379  89.0625 271.0522 15.06383047310430
STARLINK-1300,45374,53.0554,0.0001732,15.06390526,546.0411191365783,548.4400699353255,1 45374U 20019Q   25305.57985126 -.00001283  00000+0 -67231-4 0  9991,2 45374  53.0554  21.7237 0001732  95.9862 264.1325 15.06390526310421
